NORAD_CAT_ID,OBJECT_NAME,OBJECT_TYPE,EPOCH,MEAN_MOTION,ECCENTRICITY,INCLINATION,RA_OF_ASC_NODE,ARG_OF_PERICENTER,MEAN_ANOMALY,BSTAR,MEAN_MOTION_DOT,MEAN_MOTION_DDOT,TLE_LINE0,TLE_LINE1,TLE_LINE2,SEMIMAJOR_AXIS,PERIOD,APOGEE,PERIGEE,DECAYED
51868.0,STARLINK-3578,PAYLOAD,2024-06-21 14:26:15,15.08844559,0.0001096,53.2177,299.7426,80.9089,279.2027,9.2928e-05,1.192e-05,0.0,0 STARLINK-3578,1 51868U 22022S   24173.60157071  .00001192  00000-0  92928-4 0  9997,2 51868  53.2177 299.7426 0001096  80.9089 279.2027 15.08844559128597,6917.866,95.437,540.49,538.973,0.0
51868.0,STARLINK-3578,PAYLOAD,2024-06-21 17:37:01,15.08847456,0.0001228,53.2185,299.146,78.3653,281.7477,0.00012065,1.633e-05,0.0,0 STARLINK-3578,1 51868U 22022S   24173.73404840  .00001633  00000-0  12065-3 0  9993,2 51868  53.2185 299.1460 0001228  78.3653 281.7477 15.08847456128612,6917.858,95.437,540.572,538.873,0.0
51868.0,STARLINK-3578,PAYLOAD,2024-06-22 12:41:40,15.08840394,0.0001228,53.2176,295.5807,72.8337,287.279,4.9491e-05,5e-06,0.0,0 STARLINK-3578,1 51868U 22022S   24174.52893580  .00000500  00000-0  49491-4 0  9990,2 51868  53.2176 295.5807 0001228  72.8337 287.2790 15.08840394128731,6917.879,95.438,540.594,538.895,0.0
51868.0,STARLINK-3578,PAYLOAD,2024-06-22 14:17:03,15.08841889,0.0001178,53.2172,295.2824,74.3953,285.7169,6.3015e-05,7.15e-06,0.0,0 STARLINK-3578,1 51868U 22022S   24174.59517423  .00000715  00000-0  63015-4 0  9992,2 51868  53.2172 295.2824 0001178  74.3953 285.7169 15.08841889128742,6917.875,95.437,540.555,538.925,0.0
51868.0,STARLINK-3578,PAYLOAD,2024-06-22 15:52:26,15.0884203,0.0001255,53.2176,294.9862,70.4924,289.6204,5.9152e-05,6.54e-06,0.0,0 STARLINK-3578,1 51868U 22022S   24174.66141446  .00000654  00000-0  59152-4 0  9997,2 51868  53.2176 294.9862 0001255  70.4924 289.6204 15.08842030128758,6917.874,95.437,540.607,538.871,0.0
51868.0,STARLINK-3578,PAYLOAD,2024-06-23 14:07:49,15.08848356,0.0001394,53.218,290.8233,65.7763,294.3375,1.1108e-05,-1.11e-06,0.0,0 STARLINK-3578,1 51868U 22022S   24175.58877197 -.00000111  00000-0  11108-4 0  9996,2 51868  53.2180 290.8233 0001394  65.7763 294.3375 15.08848356128896,6917.855,95.437,540.684,538.755,0.0
51868.0,STARLINK-3578,PAYLOAD,2024-06-24 13:58:36,15.08845282,0.0001381,53.2171,286.3623,67.7917,292.3222,0.0001141,1.529e-05,0.0,0 STARLINK-3578,1 51868U 22022S   24176.58236951  .00001529  00000-0  11410-3 0  9992,2 51868  53.2171 286.3623 0001381  67.7917 292.3222 15.08845282129040,6917.864,95.437,540.685,538.774,0.0
51868.0,STARLINK-3578,PAYLOAD,2024-06-25 12:14:01,15.0883865,0.0001431,53.2187,282.1989,101.607,258.5083,1.8075e-05,0.0,0.0,0 STARLINK-3578,1 51868U 22022S   24177.50973425 -.00000000  00000-0  18075-4 0  9998,2 51868  53.2187 282.1989 0001431 101.6070 258.5083 15.08838650129185,6917.885,95.438,540.739,538.76,0.0
51868.0,STARLINK-3578,PAYLOAD,2024-06-25 13:49:24,15.08838898,0.0001405,53.2185,281.9013,99.0831,261.032,1.5605e-05,-4e-07,0.0,0 STARLINK-3578,1 51868U 22022S   24177.57597403 -.00000040  00000-0  15605-4 0  9993,2 51868  53.2185 281.9013 0001405  99.0831 261.0320 15.08838898129192,6917.884,95.438,540.721,538.777,0.0
51868.0,STARLINK-3578,PAYLOAD,2024-06-26 12:04:47,15.0884406,0.0001446,53.2182,277.7364,107.9079,252.2071,6.6065e-05,7.64e-06,0.0,0 STARLINK-3578,1 51868U 22022S   24178.50332792  .00000764  00000-0  66065-4 0  9993,2 51868  53.2182 277.7364 0001446 107.9079 252.2071 15.08844060129338,6917.868,95.437,540.733,538.733,0.0
51868.0,STARLINK-3578,PAYLOAD,2024-06-27 13:30:58,15.08836704,0.0001181,53.2168,272.981,89.701,270.4117,3.1367e-05,2.11e-06,0.0,0 STARLINK-3578,1 51868U 22022S   24179.56317665  .00000211  00000-0  31367-4 0  9996,2 51868  53.2168 272.9810 0001181  89.7010 270.4117 15.08836704129499,6917.89,95.438,540.572,538.938,0.0
51868.0,STARLINK-3578,PAYLOAD,2024-06-28 13:21:44,15.08849662,0.0001161,53.2157,268.5203,111.2789,248.8327,0.00017631,2.52e-05,0.0,0 STARLINK-3578,1 51868U 22022S   24180.55676594  .00002520  00000-0  17631-3 0  9998,2 51868  53.2157 268.5203 0001161 111.2789 248.8327 15.08849662129642,6917.851,95.437,540.519,538.913,0.0
51868.0,STARLINK-3578,PAYLOAD,2024-06-29 05:15:37,15.08832867,0.0001528,53.2155,265.5463,80.2001,279.9163,3.099e-05,2.05e-06,0.0,0 STARLINK-3578,1 51868U 22022S   24181.21918298  .00000205  00000-0  30990-4 0  9994,2 51868  53.2155 265.5463 0001528  80.2001 279.9163 15.08832867129747,6917.902,95.438,540.824,538.71,0.0
51868.0,STARLINK-3578,PAYLOAD,2024-06-29 13:12:33,15.08833812,0.0001274,53.2161,264.0595,76.3531,283.7603,1.8842e-05,1.2e-07,0.0,0 STARLINK-3578,1 51868U 22022S   24181.55038417  .00000012  00000-0  18842-4 0  9995,2 51868  53.2161 264.0595 0001274  76.3531 283.7603 15.08833812129794,6917.899,95.438,540.646,538.883,0.0
51868.0,STARLINK-3578,PAYLOAD,2024-06-30 11:27:56,15.08845421,0.0001073,53.215,259.8949,96.6311,263.4804,-1.5323e-05,-5.32e-06,0.0,0 STARLINK-3578,1 51868U 22022S   24182.47774020 -.00000532  00000-0 -15323-4 0  9994,2 51868  53.2150 259.8949 0001073  96.6311 263.4804 15.08845421129938,6917.864,95.437,540.471,538.987,0.0
51868.0,STARLINK-3578,PAYLOAD,2024-06-30 11:27:57,15.08836378,0.0001064,53.2152,259.8948,82.1081,278.0032,8.5516e-05,1.073e-05,0.0,0 STARLINK-3578,1 51868U 22022S   24182.47774318  .00001073  00000-0  85516-4 0  9994,2 51868  53.2152 259.8948 0001064  82.1081 278.0032 15.08836378129939,6917.891,95.438,540.493,539.02,0.0
51868.0,STARLINK-3578,PAYLOAD,2024-07-01 14:29:29,15.08846086,0.0001366,53.2163,254.8394,84.8946,275.2202,0.00015752,2.22e-05,0.0,0 STARLINK-3578,1 51868U 22022S   24183.60381632  .00002220  00000-0  15752-3 0  9992,2 51868  53.2163 254.8394 0001366  84.8946 275.2202 15.08846086130101,6917.862,95.437,540.672,538.782,0.0
51868.0,STARLINK-3578,PAYLOAD,2024-07-01 22:26:25,15.08841809,0.0001164,53.2148,253.3514,82.2801,277.8323,0.00011395,1.526e-05,0.0,0 STARLINK-3578,1 51868U 22022S   24183.93501899  .00001526  00000-0  11395-3 0  9994,2 51868  53.2148 253.3514 0001164  82.2801 277.8323 15.08841809130155,6917.875,95.437,540.545,538.935,0.0
51868.0,STARLINK-3578,PAYLOAD,2024-07-02 04:47:58,15.08839814,0.0001545,53.216,252.1636,89.5386,270.5783,4.5436e-05,4.35e-06,0.0,0 STARLINK-3578,1 51868U 22022S   24184.19998411  .00000435  00000-0  45436-4 0  9995,2 51868  53.2160 252.1636 0001545  89.5386 270.5783 15.08839814130199,6917.881,95.438,540.815,538.677,0.0
51868.0,STARLINK-3578,PAYLOAD,2024-07-02 09:34:08,15.08838359,0.0001367,53.2157,251.2718,92.624,267.4909,4.4961e-05,4.28e-06,0.0,0 STARLINK-3578,1 51868U 22022S   24184.39870458  .00000428  00000-0  44961-4 0  9991,2 51868  53.2157 251.2718 0001367  92.6240 267.4909 15.08838359130224,6917.885,95.438,540.696,538.805,0.0
51868.0,STARLINK-3578,PAYLOAD,2024-07-03 11:00:18,15.08838479,0.0001338,53.216,246.5144,91.4227,268.6919,3.3925e-05,2.52e-06,0.0,0 STARLINK-3578,1 51868U 22022S   24185.45854536  .00000252  00000-0  33925-4 0  9991,2 51868  53.2160 246.5144 0001338  91.4227 268.6919 15.08838479130382,6917.885,95.438,540.676,538.824,0.0
51868.0,STARLINK-3578,PAYLOAD,2024-07-03 20:32:37,15.08842438,0.0001282,53.216,244.7302,87.3275,272.7863,-2.9945e-05,-7.64e-06,0.0,0 STARLINK-3578,1 51868U 22022S   24185.85598412 -.00000764  00000-0 -29945-4 0  9990,2 51868  53.2160 244.7302 0001282  87.3275 272.7863 15.08842438130444,6917.873,95.437,540.625,538.851,0.0
51868.0,STARLINK-3578,PAYLOAD,2024-07-04 10:51:05,15.08840447,0.0001392,53.2163,242.0541,93.5794,266.5358,9.8369e-05,1.278e-05,0.0,0 STARLINK-3578,1 51868U 22022S   24186.45214314  .00001278  00000-0  98369-4 0  9998,2 51868  53.2163 242.0541 0001392  93.5794 266.5358 15.08840447130538,6917.879,95.438,540.707,538.781,0.0
51868.0,STARLINK-3578,PAYLOAD,2024-07-04 20:23:23,15.08840559,0.0001395,53.2164,240.2693,91.4292,268.6859,0.00010899,1.447e-05,0.0,0 STARLINK-3578,1 51868U 22022S   24186.84958309  .00001447  00000-0  10899-3 0  9999,2 51868  53.2164 240.2693 0001395  91.4292 268.6859 15.08840559130599,6917.879,95.438,540.709,538.779,0.0
51868.0,STARLINK-3578,PAYLOAD,2024-07-05 09:06:29,15.08837274,0.000141,53.2164,237.8911,93.5726,266.5427,6.2642e-05,7.09e-06,0.0,0 STARLINK-3578,1 51868U 22022S   24187.37950693  .00000709  00000-0  62642-4 0  9990,2 51868  53.2164 237.8911 0001410  93.5726 266.5427 15.08837274130674,6917.889,95.438,540.729,538.778,0.0
51868.0,STARLINK-3578,PAYLOAD,2024-07-05 20:14:11,15.08837714,0.0001404,53.2164,235.8096,92.8284,267.2869,5.651e-05,6.11e-06,0.0,0 STARLINK-3578,1 51868U 22022S   24187.84318764  .00000611  00000-0  56510-4 0  9998,2 51868  53.2164 235.8096 0001404  92.8284 267.2869 15.08837714130745,6917.887,95.438,540.724,538.781,0.0
51868.0,STARLINK-3578,PAYLOAD,2024-07-06 12:08:02,15.08838376,0.0001483,53.2168,232.836,93.8959,266.2203,1.0766e-05,-1.17e-06,0.0,0 STARLINK-3578,1 51868U 22022S   24188.50558895 -.00000117  00000-0  10766-4 0  9998,2 51868  53.2168 232.8360 0001483  93.8959 266.2203 15.08838376130844,6917.885,95.438,540.776,538.724,0.0
51868.0,STARLINK-3578,PAYLOAD,2024-07-07 02:26:31,15.08837874,0.0001506,53.2168,230.1589,90.3986,269.7178,4.1175e-05,3.67e-06,0.0,0 STARLINK-3578,1 51868U 22022S   24189.10174892  .00000367  00000-0  41175-4 0  9990,2 51868  53.2168 230.1589 0001506  90.3986 269.7178 15.08837874130937,6917.887,95.438,540.794,538.71,0.0
51868.0,STARLINK-3578,PAYLOAD,2024-07-07 10:23:26,15.08838654,0.000144,53.2162,228.6717,90.4212,269.6945,4.0224e-05,3.52e-06,0.0,0 STARLINK-3578,1 51868U 22022S   24189.43294862  .00000352  00000-0  40224-4 0  9994,2 51868  53.2162 228.6717 0001440  90.4212 269.6945 15.08838654130989,6917.885,95.438,540.746,538.753,0.0
51868.0,STARLINK-3578,PAYLOAD,2024-07-08 08:38:50,15.08842228,0.0001412,53.2159,224.5081,91.2188,268.8966,0.00012365,1.681e-05,0.0,0 STARLINK-3578,1 51868U 22022S   24190.36030362  .00001681  00000-0  12365-3 0  9991,2 51868  53.2159 224.5081 0001412  91.2188 268.8966 15.08842228131127,6917.874,95.437,540.715,538.762,0.0
